STARLINK-5598           
1 55421U 23014AG  23264.23845422  .00001272  00000+0  11446-3 0  9994
2 55421  70.0024 194.8013 0002574 265.0242  95.0623 14.98311986 36685
STARLINK-5006           
1 55422U 23014AH  23264.21398651 -.00049103  00000+0 -41796-2 0  9997
2 55422  70.0020 194.7094 0003111 268.6105  91.4697 14.97927496 36684
STARLINK-5068           
1 55423U 23014AJ  23264.25514741 -.00000711  00000+0 -51844-4 0  9991
2 55423  70.0020 194.8601 0002699 255.5250 104.5610 14.98324135 36689
STARLINK-5615           
1 55425U 23014AL  23264.24680141 -.00001496  00000+0 -11764-3 0  9997
2 55425  70.0028 194.8318 0002525 263.6446  96.4425 14.98321052 36687
STARLINK-5638           
1 55426U 23014AM  23264.19677877 -.00007164  00000+0 -59410-3 0  9992
2 55426  70.0033 195.0607 0002567 266.6785  93.4080 14.98272338 36678
STARLINK-5073           
1 55427U 23014AN  23264.25097361 -.00000697  00000+0 -50621-4 0  9994
2 55427  70.0021 194.8471 0002686 257.5411 102.5447 14.98320009 36688
STARLINK-5064           
1 55428U 23014AP  23264.20508497 -.00002727  00000+0 -22089-3 0  9999
2 55428  70.0023 195.0858 0002870 278.9366  81.1468 14.98320404 36677
STARLINK-5645           
1 55429U 23014AQ  23264.19256269 -.00000681  00000+0 -49313-4 0  9992
2 55429  70.0016 195.0427 0002778 268.0855  91.9986 14.98321410 36674
STARLINK-5642           
1 55430U 23014AR  23264.25118933 -.00000627  00000+0 -44754-4 0  9990
2 55430  70.0005 214.7030 0002971 259.1872 100.8953 14.98328222 36197
STARLINK-5643           
1 55431U 23014AS  23264.20091152 -.00001278  00000+0 -99345-4 0  9998
2 55431  70.0017 195.0748 0002653 259.0374 101.0486 14.98322694 36675
STARLINK-5637           
1 55432U 23014AT  23264.32210393  .00001316  00000+0  11798-3 0  9998
2 55432  70.0006 214.5495 0002794 272.3944  87.6895 14.98344827 36201
STARLINK-5570           
1 55433U 23014AU  23264.31378225 -.00000292  00000+0 -16686-4 0  9993
2 55433  70.0022 214.5203 0002345 261.9040  98.1853 14.98320106 36205
STARLINK-5621           
1 55434U 23014AV  23264.26789404 -.00000315  00000+0 -18657-4 0  9999
2 55434  70.0013 214.7626 0002567 254.5614 105.5262 14.98321314 36195
STARLINK-5626           
1 55435U 23014AW  23264.25954814  .00000142  00000+0  19696-4 0  9998
2 55435  70.0015 214.7349 0002728 262.6326  97.4523 14.98315519 36198
STARLINK-5640           
1 55436U 23014AX  23264.27206178 -.00000678  00000+0 -49010-4 0  9993
2 55436  70.0004 214.7757 0003434 260.9994  99.0777 14.98330154 36198
STARLINK-5080           
1 55437U 23014AY  23264.26526254  .00025876  00000+0  18435-2 0  9993
2 55437  69.9978 212.7437 0001433 238.8524 121.2498 15.04522105 36240
STARLINK-5074           
1 55438U 23014AZ  23264.18814108 -.00000835  00000+0 -62224-4 0  9990
2 55438  70.0016 174.7709 0002614 267.4373  92.6487 14.98319348 37175
STARLINK-5634           
1 55439U 23014BA  23264.27623372 -.00000062  00000+0  25838-5 0  9994
2 55439  70.0004 214.7904 0003021 266.4347  93.6467 14.98330562 36199
ION SCV-009             
1 55441U 23014BC  23264.53402564  .00061954  00000+0  58125-3 0  9993
2 55441  70.0058 162.5377 0003716 331.7571  28.3421 15.66867815 36693
STARLINK-5699           
1 55449U 23015A   23264.21195073 -.00002379  00000+0 -16111-3 0  9998
2 55449  43.0039 179.3749 0001293 260.9709  99.0987 15.02528284 36239
STARLINK-5686           
1 55450U 23015B   23264.14880631 -.00003195  00000+0 -22159-3 0  9999
2 55450  43.0038 179.7615 0001031 272.5394  87.5331 15.02524479 36221
STARLINK-5656           
1 55451U 23015C   23264.14214107 -.00000464  00000+0 -19318-4 0  9999
2 55451  43.0023 179.7149 0001354 272.8147  87.2540 15.02524326 35280
STARLINK-5683           
1 55452U 23015D   23264.13659832 -.00002176  00000+0 -14612-3 0  9990
2 55452  43.0028 179.6747 0000907 279.9351  80.1389 15.02523139 35281
STARLINK-5684           
1 55453U 23015E   23264.19974010 -.00002199  00000+0 -14775-3 0  9990
2 55453  43.0042 179.2864 0001116 259.3934 100.6783 15.02533120 35294
STARLINK-5636           
1 55454U 23015F   23264.19419624 -.00002473  00000+0 -16812-3 0  9995
2 55454  43.0018 179.2334 0000865 268.4359  91.6385 15.02521617 35297
STARLINK-5680           
1 55455U 23015G   23264.27287690 -.00001652  00000+0 -10725-3 0  9996
2 55455  43.0042 178.9743 0001205 265.4308  94.6397 15.02529439 35303
STARLINK-5058           
1 55456U 23015H   23264.19530300 -.00002629  00000+0 -17969-3 0  9999
2 55456  43.0042 179.2528 0000989 273.1670  86.9060 15.02527586 35295
STARLINK-5682           
1 55457U 23015J   23264.19751505 -.00002541  00000+0 -17313-3 0  9998
2 55457  43.0031 179.2694 0001194 264.8133  95.2573 15.02525744 35294
STARLINK-5020           
1 55458U 23015K   23264.18308636 -.00002325  00000+0 -15711-3 0  9991
2 55458  43.0021 179.1585 0001246 252.7574 107.3132 15.02524542 35296
STARLINK-5669           
1 55459U 23015L   23264.18863680 -.00001012  00000+0 -59863-4 0  9996
2 55459  43.0013 179.2007 0001169 259.5565 100.5146 15.02523070 35292
STARLINK-5678           
1 55460U 23015M   23264.18531436 -.00001841  00000+0 -12132-3 0  9996
2 55460  43.0032 179.1765 0001141 271.8074  88.2638 15.02524831 35291
STARLINK-5646           
1 55461U 23015N   23264.19197248 -.00002957  00000+0 -20395-3 0  9996
2 55461  43.0037 179.2254 0001158 253.6958 106.3757 15.02526177 35297
STARLINK-5673           
1 55462U 23015P   23264.17421808 -.00001837  00000+0 -12099-3 0  9995
2 55462  43.0038 179.0934 0001314 284.3710  75.6986 15.02523117 35296
STARLINK-5677           
1 55463U 23015Q   23264.17976270 -.00002926  00000+0 -20163-3 0  9995
2 55463  43.0040 179.1331 0001108 243.5814 116.4915 15.02529349 35294
STARLINK-5676           
1 55464U 23015R   23263.83295070 -.00002759  00000+0 -18935-3 0  9998
2 55464  43.0044 180.8326 0001508 277.5710  82.4961 15.02512346 35245
STARLINK-5674           
1 55465U 23015S   23264.17087868 -.00004481  00000+0 -31699-3 0  9997
2 55465  43.0026 179.0662 0001507 255.6281 104.4395 15.02517263 35292
STARLINK-5628           
1 55466U 23015T   23264.15645216 -.00002473  00000+0 -16805-3 0  9994
2 55466  43.0035 178.9588 0001174 268.5250  91.5458 15.02532997 35294
STARLINK-5679           
1 55467U 23015U   23264.17753672 -.00002830  00000+0 -19458-3 0  9997
2 55467  43.0020 179.1175 0001296 268.6751  91.3943 15.02528252 35292
STARLINK-5672           
1 55468U 23015V   23264.16309641 -.00001035  00000+0 -61568-4 0  9996
2 55468  43.0041 179.0072 0001367 272.3499  87.7187 15.02541837 35294
STARLINK-5681           
1 55469U 23015W   23263.83627687 -.00002642  00000+0 -18064-3 0  9990
2 55469  43.0045 180.8581 0001449 272.0088  88.0588 15.02519464 35241
STARLINK-5708           
1 55470U 23015X   23264.15977927 -.00004154  00000+0 -29274-3 0  9998
2 55470  43.0022 178.9844 0001363 256.8952 103.1738 15.02519436 35293
STARLINK-5711           
1 55471U 23015Y   23264.15756514 -.00003166  00000+0 -21941-3 0  9991
2 55471  43.0035 178.9673 0001334 272.2559  87.8131 15.02528975 35294
STARLINK-5705           
1 55472U 23015Z   23264.15683155 -.00002548  00000+0 -17369-3 0  9994
2 55472  43.0034 166.8124 0001332 253.8669 106.2027 15.02522243 35434
STARLINK-5687           
1 55473U 23015AA  23264.15424613 -.00002790  00000+0 -19165-3 0  9992
2 55473  43.0022 178.9375 0000977 247.8153 112.2585 15.02511413 35296
STARLINK-5689           
1 55474U 23015AB  23264.19504218  .00004936  00000+0  38035-3 0  9996
2 55474  43.0005 192.2410 0000974 270.3849  89.6882 15.02521560 35142
STARLINK-5650           
1 55475U 23015AC  23263.95147810 -.00004585  00000+0 -32471-3 0  9991
2 55475  43.0040 179.9975 0000978 264.4062  95.6669 15.02523624 35261
STARLINK-5596           
1 55476U 23015AD  23263.90270297  .00598948  17253-3  94334-3 0  9990
2 55476  42.9956  68.0794 0014184 309.6912  50.2985 16.02855022 36544
STARLINK-5685           
1 55477U 23015AE  23264.15350015 -.00003634  00000+0 -25410-3 0  9998
2 55477  43.0039 166.7826 0001189 259.6200 100.4509 15.02529546 35431
STARLINK-5691           
1 55478U 23015AF  23264.15127612  .00010771  00000+0  81158-3 0  9993
2 55478  43.0016 166.7644 0001056 249.5215 110.5514 15.02515955 35439
STARLINK-5688           
1 55479U 23015AG  23263.82776618 -.00001773  00000+0 -11621-3 0  9995
2 55479  43.0025 168.6388 0001048 268.8757  91.1965 15.02528757 35384
STARLINK-5690           
1 55480U 23015AH  23264.28251333  .00009673  00000+0  74605-3 0  9996
2 55480  43.0017 189.4180 0001450 267.1443  92.9233 15.01716387 35181
STARLINK-5694           
1 55481U 23015AJ  23264.19171659 -.00001846  00000+0 -12164-3 0  9997
2 55481  43.0034 192.2130 0001034 280.6061  79.4665 15.02523954 35144
STARLINK-5693           
1 55482U 23015AK  23264.23488055 -.00002946  00000+0 -20316-3 0  9994
2 55482  43.0022 191.6802 0001177 271.2538  88.8169 15.02526275 35157
STARLINK-5692           
1 55483U 23015AL  23264.04766268 -.00002394  00000+0 -16226-3 0  9991
2 55483  43.0039 192.8544 0001139 275.4761  84.5951 15.02525440 35126
STARLINK-5696           
1 55484U 23015AM  23264.30468599  .00001971  00000+0  16095-3 0  9999
2 55484  43.0019 191.3435 0001262 270.9248  89.1449 15.02527159 35161
STARLINK-5695           
1 55485U 23015AN  23264.18616076 -.00003654  00000+0 -25564-3 0  9994
2 55485  43.0027 192.1725 0001207 282.2996  77.7711 15.02521708 35144
STARLINK-5704           
1 55486U 23015AP  23263.85676708 -.00001757  00000+0 -11769-3 0  9990
2 55486  43.0045 193.1106 0001305 272.2703  87.7989 15.01711044 35100
STARLINK-5701           
1 55487U 23015AQ  23264.18837684 -.00001691  00000+0 -11014-3 0  9990
2 55487  43.0028 192.1869 0001123 274.0943  85.9771 15.02532668 35148
STARLINK-5706           
1 55488U 23015AR  23263.89694830 -.00002016  00000+0 -13429-3 0  9996
2 55488  43.0025 193.4375 0001168 274.5148  85.5560 15.02517557 35101
